STARLINK-37021          
1 68105U 26044E   26087.83157330 -.00540025  00000+0 -40909-2 0  9990
2 68105  97.2842  48.9190 0002038 143.2581 216.8823 15.73801773  4491
STARLINK-37024          
1 68106U 26044F   26087.83023119  .00328585  00000+0  21101-2 0  9994
2 68106  97.2840  48.9206 0001677 112.1805 247.9638 15.75299761  4499
STARLINK-37005          
1 68107U 26044G   26087.83309095 -.00211533  00000+0 -14688-2 0  9993
2 68107  97.2841  48.9172 0001916 119.0839 241.0618 15.74932695  4494
STARLINK-37017          
1 68108U 26044H   26087.82987994  .00182696  00000+0  11972-2 0  9991
2 68108  97.2841  48.9218 0001473 108.6323 251.5102 15.75238549  4498
STARLINK-36833          
1 68109U 26044J   26087.82846958  .00165203  00000+0  10854-2 0  9999
2 68109  97.2846  48.9226 0001248 107.9313 252.2088 15.75227375  4490
STARLINK-36830          
1 68110U 26044K   26087.82917052  .00200608  00000+0  13102-2 0  9993
2 68110  97.2846  48.9220 0001673 119.5751 240.5682 15.75265076  4493
STARLINK-36791          
1 68111U 26044L   26087.89058638  .00072674  00000+0  48393-3 0  9998
2 68111  97.2846  48.9920 0001387  97.2515 262.8908 15.75191897  4502
STARLINK-36893          
1 68112U 26044M   26087.82599406  .00106024  00000+0  70153-3 0  9991
2 68112  97.2848  48.9256 0001544 105.1586 254.9850 15.75235164  4491
STARLINK-36937          
1 68113U 26044N   26087.82493972  .00302150  00000+0  19490-2 0  9997
2 68113  97.2846  48.9273 0000993 100.9212 259.2165 15.75270235  4490
STARLINK-36229          
1 68114U 26044P   26087.82529019  .00114223  00000+0  75535-3 0  9995
2 68114  97.2851  48.9260 0001400 107.0661 253.0758 15.75224261  4491
STARLINK-36392          
1 68115U 26044Q   26087.88746754 -.00485250  00000+0 -35145-2 0  9994
2 68115  97.2849  48.9952 0001202  44.9797 315.1565 15.74701445  4507
STARLINK-36805          
1 68116U 26044R   26087.82352909  .00316078  00000+0  20345-2 0  9999
2 68116  97.2846  48.9287 0001395 113.7777 246.3634 15.75280696  4493
STARLINK-36844          
1 68117U 26044S   26087.82211539  .00158098  00000+0  10392-2 0  9990
2 68117  97.2847  48.9310 0001405  90.5726 269.5700 15.75236742  4494
STARLINK-36789          
1 68118U 26044T   26087.83335647  .00148073  00000+0  97980-3 0  9990
2 68118  97.2852  48.9448 0001294  72.8932 352.9455 15.75111812  4439
STARLINK-36850          
1 68119U 26044U   26087.82140801  .00119578  00000+0  79014-3 0  9992
2 68119  97.2852  48.9313 0001671 118.5682 241.5752 15.75226262  4495
STARLINK-36868          
1 68120U 26044V   26087.88352965  .00207078  00000+0  13539-2 0  9998
2 68120  97.2848  48.9997 0000683  68.9743 291.1595 15.75223030  4506
STARLINK-36855          
1 68121U 26044W   26087.81929109  .00118211  00000+0  78125-3 0  9995
2 68121  97.2852  48.9345 0001343  98.0016 262.1401 15.75226422  4490
